KUIPER-00044            
1 64505U 25134F   25347.17680036  .00009687  00000+0  12954-2 0  9999
2 64505  51.8992 269.1539 0011685 348.0999  11.9686 14.79977909 27073
KUIPER-00046            
1 64506U 25134G   25347.17242741  .00010143  00000+0  13342-2 0  9998
2 64506  51.8984 265.5500 0012568 359.5973   0.4978 14.80622205 27124
KUIPER-00047            
1 64507U 25134H   25347.08718060  .00006423  00000+0  80983-3 0  9993
2 64507  51.8976 237.6008 0008612  16.1224 344.0012 14.82987387 27504
KUIPER-00048            
1 64508U 25134J   25347.07578704  .00006416  00000+0  86929-3 0  9990
2 64508  51.8986 238.5906 0003685 133.4290 226.6979 14.79960810 27497
KUIPER-00049            
1 64509U 25134K   25347.12816499 -.00024650  00000+0 -32220-2 0  9999
2 64509  51.9008 251.8259 0002530 358.5151   1.5803 14.79855123 27314
KUIPER-00050            
1 64510U 25134L   25347.11172325  .00010123  00000+0  89850-3 0  9993
2 64510  51.8902 245.3257 0004819  39.2618 320.8700 14.96677148 27408
KUIPER-00051            
1 64511U 25134M   25347.13087535  .00002351  00000+0  33735-3 0  9999
2 64511  51.9009 249.3828 0002628  21.2909 338.8162 14.79940119 27342
KUIPER-00052            
1 64512U 25134N   25347.27453103  .00415716  00000+0  29606-2 0  9997
2 64512  51.8616 192.0452 0002529 112.9382 247.1886 15.72038023 28146
